start=new Date('2022-02-01T00:00:00.000Z').valueOf();
sats=[{"RCS_SIZE":"LARGE","MEAN_MOTION_DDOT":"0.0000000000000","RA_OF_ASC_NODE":"16.5906","PERIOD":"95.593","TIME_SYSTEM":"UTC","DECAY_DATE":null,"GP_ID":"195028738","PERIAPSIS":"546.201","LAUNCH_DATE":"2021-05-15","REV_AT_EPOCH":"3981","TLE_LINE1":"1 48569U 21041S   22031.65029732 -.00001277  00000-0 -66835-4 0  9993","EPHEMERIS_TYPE":"0","APOAPSIS":"548.282","BSTAR":"-0.00006683500000","SEMIMAJOR_AXIS":"6925.377","REF_FRAME":"TEME","TLE_LINE2":"2 48569  53.0558  16.5906 0001502  63.7499 296.3644 15.06390862 39818","SITE":"AFETR","OBJECT_ID":"2021-041S","ARG_OF_PERICENTER":"63.7499","FILE":"3288647","CLASSIFICATION_TYPE":"U","ELEMENT_SET_NO":"999","MEAN_ANOMALY":"296.3644","ECCENTRICITY":"0.00015020","MEAN_MOTION":"15.06390862","MEAN_MOTION_DOT":"-0.00001277","MEAN_ELEMENT_THEORY":"SGP4","INCLINATION":"53.0558","EPOCH":"2022-01-31T15:36:25.688448","COUNTRY_CODE":"US","OBJECT_TYPE":"PAYLOAD","NORAD_CAT_ID":"48569","OBJECT_NAME":"STARLINK-2219","CENTER_NAME":"EARTH"},{"RCS_SIZE":"LARGE","MEAN_MOTION_DDOT":"0.0000000000000","RA_OF_ASC_NODE":"26.3281","PERIOD":"95.592","TIME_SYSTEM":"UTC","GP_ID":"195056018","DECAY_DATE":null,"PERIAPSIS":"546.264","LAUNCH_DATE":"2021-05-15","REV_AT_EPOCH":"3927","EPHEMERIS_TYPE":"0","TLE_LINE1":"1 48570U 21041T   22031.70465901  .00000379  00000-0  44370-4 0  9993","APOAPSIS":"548.171","BSTAR":"0.00004437000000","SEMIMAJOR_AXIS":"6925.352","REF_FRAME":"TEME","SITE":"AFETR","TLE_LINE2":"2 48570  53.0560  26.3281 0001377  64.2083 295.9048 15.06398716 39272","ARG_OF_PERICENTER":"64.2083","OBJECT_ID":"2021-041T","CLASSIFICATION_TYPE":"U","FILE":"3288814","ELEMENT_SET_NO":"999","MEAN_ANOMALY":"295.9048","ECCENTRICITY":"0.00013770","MEAN_MOTION":"15.06398716","MEAN_MOTION_DOT":"0.00000379","EPOCH":"2022-01-31T16:54:42.538464","INCLINATION":"53.0560","MEAN_ELEMENT_THEORY":"SGP4","OBJECT_TYPE":"PAYLOAD","COUNTRY_CODE":"US","NORAD_CAT_ID":"48570","CENTER_NAME":"EARTH","OBJECT_NAME":"STARLINK-2220"},{"DECAY_DATE":null,"GP_ID":"195056266","TIME_SYSTEM":"UTC","PERIOD":"95.592","MEAN_MOTION_DDOT":"0.0000000000000","RA_OF_ASC_NODE":"26.3148","RCS_SIZE":"LARGE","SEMIMAJOR_AXIS":"6925.354","APOAPSIS":"548.247","BSTAR":"0.00003190500000","REV_AT_EPOCH":"3928","EPHEMERIS_TYPE":"0","TLE_LINE1":"1 48571U 21041U   22031.71203210  .00000194  00000-0  31905-4 0  9993","PERIAPSIS":"546.192","LAUNCH_DATE":"2021-05-15","MEAN_ANOMALY":"291.4017","CLASSIFICATION_TYPE":"U","FILE":"3288814","ELEMENT_SET_NO":"999","ARG_OF_PERICENTER":"68.7130","OBJECT_ID":"2021-041U","REF_FRAME":"TEME","SITE":"AFETR","TLE_LINE2":"2 48571  53.0540  26.3148 0001484  68.7130 291.4017 15.06398149 39282","NORAD_CAT_ID":"48571","CENTER_NAME":"EARTH","OBJECT_NAME":"STARLINK-2221","OBJECT_TYPE":"PAYLOAD","COUNTRY_CODE":"US","MEAN_MOTION_DOT":"0.00000194","EPOCH":"2022-01-31T17:05:19.573440","MEAN_ELEMENT_THEORY":"SGP4","INCLINATION":"53.0540","ECCENTRICITY":"0.00014840","MEAN_MOTION":"15.06398149"},{"TIME_SYSTEM":"UTC","PERIOD":"95.592","DECAY_DATE":null,"GP_ID":"195054517","RCS_SIZE":"LARGE","RA_OF_ASC_NODE":"26.3163","MEAN_MOTION_DDOT":"0.0000000000000","BSTAR":"0.00020420000000","APOAPSIS":"548.342","SEMIMAJOR_AXIS":"6925.357","LAUNCH_DATE":"2021-05-15","PERIAPSIS":"546.101","EPHEMERIS_TYPE":"0","TLE_LINE1":"1 48572U 21041V   22031.70834790  .00002761  00000-0  20420-3 0  9997","REV_AT_EPOCH":"3928","ELEMENT_SET_NO":"999","CLASSIFICATION_TYPE":"U","FILE":"3288814","MEAN_ANOMALY":"281.5954","SITE":"AFETR","TLE_LINE2":"2 48572  53.0547  26.3163 0001618  78.5216 281.5954 15.06397340 39282","REF_FRAME":"TEME","ARG_OF_PERICENTER":"78.5216","OBJECT_ID":"2021-041V","OBJECT_TYPE":"PAYLOAD","COUNTRY_CODE":"US","CENTER_NAME":"EARTH","OBJECT_NAME":"STARLINK-2222","NORAD_CAT_ID":"48572","MEAN_MOTION":"15.06397340","ECCENTRICITY":"0.00016180","EPOCH":"2022-01-31T17:00:01.258560","MEAN_ELEMENT_THEORY":"SGP4","INCLINATION":"53.0547","MEAN_MOTION_DOT":"0.00002761"},{"RA_OF_ASC_NODE":"16.4050","MEAN_MOTION_DDOT":"0.0000000000000","RCS_SIZE":"LARGE","DECAY_DATE":null,"GP_ID":"195055267","TIME_SYSTEM":"UTC","PERIOD":"95.592","TLE_LINE1":"1 48573U 21041W   22031.68715458  .00007023  00000-0  48986-3 0  9997","EPHEMERIS_TYPE":"0","REV_AT_EPOCH":"3941","LAUNCH_DATE":"2021-05-15","PERIAPSIS":"545.992","SEMIMAJOR_AXIS":"6925.346","BSTAR":"0.00048986000000","APOAPSIS":"548.431","OBJECT_ID":"2021-041W","ARG_OF_PERICENTER":"65.9341","TLE_LINE2":"2 48573  53.0545  16.4050 0001761  65.9341 294.1832 15.06400803 39413","SITE":"AFETR","REF_FRAME":"TEME","MEAN_ANOMALY":"294.1832","ELEMENT_SET_NO":"999","FILE":"3288814","CLASSIFICATION_TYPE":"U","MEAN_ELEMENT_THEORY":"SGP4","INCLINATION":"53.0545","EPOCH":"2022-01-31T16:29:30.155712","MEAN_MOTION_DOT":"0.00007023","MEAN_MOTION":"15.06400803","ECCENTRICITY":"0.00017610","OBJECT_NAME":"STARLINK-2224","CENTER_NAME":"EARTH","NORAD_CAT_ID":"48573","COUNTRY_CODE":"US","OBJECT_TYPE":"PAYLOAD"},{"OBJECT_TYPE":"PAYLOAD","COUNTRY_CODE":"US","CENTER_NAME":"EARTH","OBJECT_NAME":"STARLINK-2225","NORAD_CAT_ID":"48574","MEAN_MOTION":"15.06397453","ECCENTRICITY":"0.00014520","EPOCH":"2022-01-31T22:00:01.999584","MEAN_ELEMENT_THEORY":"SGP4","INCLINATION":"53.0505","MEAN_MOTION_DOT":"0.00003588","ELEMENT_SET_NO":"999","CLASSIFICATION_TYPE":"U","FILE":"3288814","MEAN_ANOMALY":"298.0342","SITE":"AFETR","TLE_LINE2":"2 48574  53.0505 345.3874 0001452  77.6912 298.0342 15.06397453  3594","REF_FRAME":"TEME","ARG_OF_PERICENTER":"77.6912","OBJECT_ID":"2021-041X","BSTAR":"0.00025967000000","APOAPSIS":"548.227","SEMIMAJOR_AXIS":"6925.356","LAUNCH_DATE":"2021-05-15","PERIAPSIS":"546.216","EPHEMERIS_TYPE":"0","TLE_LINE1":"1 48574U 21041X   22031.91668981  .00003588  00000-0  25967-3 0  9998","REV_AT_EPOCH":"359","TIME_SYSTEM":"UTC","PERIOD":"95.592","GP_ID":"195055519","DECAY_DATE":null,"RCS_SIZE":"LARGE","RA_OF_ASC_NODE":"345.3874","MEAN_MOTION_DDOT":"0.0000000000000"},{"PERIAPSIS":"545.408","LAUNCH_DATE":"2021-05-15","REV_AT_EPOCH":"359","EPHEMERIS_TYPE":"0","TLE_LINE1":"1 48575U 21041Y   22031.91668981 -.00005945  00000-0 -38054-3 0  9991","APOAPSIS":"549.044","BSTAR":"-0.00038054000000","SEMIMAJOR_AXIS":"6925.361","RCS_SIZE":"LARGE","MEAN_MOTION_DDOT":"0.0000000000000","RA_OF_ASC_NODE":"335.3712","PERIOD":"95.592","TIME_SYSTEM":"UTC","DECAY_DATE":null,"GP_ID":"195055767","ECCENTRICITY":"0.00026250","MEAN_MOTION":"15.06396017","MEAN_MOTION_DOT":"-0.00005945","EPOCH":"2022-01-31T22:00:01.999584","MEAN_ELEMENT_THEORY":"SGP4","INCLINATION":"53.0590","OBJECT_TYPE":"PAYLOAD","COUNTRY_CODE":"US","NORAD_CAT_ID":"48575","CENTER_NAME":"EARTH","OBJECT_NAME":"STARLINK-2227","REF_FRAME":"TEME","SITE":"AFETR","TLE_LINE2":"2 48575  53.0590 335.3712 0002625  53.2564 357.4769 15.06396017  3593","ARG_OF_PERICENTER":"53.2564","OBJECT_ID":"2021-041Y","CLASSIFICATION_TYPE":"U","FILE":"3288814","ELEMENT_SET_NO":"999","MEAN_ANOMALY":"357.4769"},{"ELEMENT_SET_NO":"999","CLASSIFICATION_TYPE":"U","FILE":"3288814","MEAN_ANOMALY":"196.7646","SITE":"AFETR","TLE_LINE2":"2 48576  53.0563 350.2993 0002355  46.3621 196.7646 15.06383060  3589","REF_FRAME":"TEME","ARG_OF_PERICENTER":"46.3621","OBJECT_ID":"2021-041Z","OBJECT_TYPE":"PAYLOAD","COUNTRY_CODE":"US","CENTER_NAME":"EARTH","OBJECT_NAME":"STARLINK-2228","NORAD_CAT_ID":"48576","MEAN_MOTION":"15.06383060","ECCENTRICITY":"0.00023550","EPOCH":"2022-01-31T22:00:01.999584","MEAN_ELEMENT_THEORY":"SGP4","INCLINATION":"53.0563","MEAN_MOTION_DOT":"0.00009180","PERIOD":"95.593","TIME_SYSTEM":"UTC","GP_ID":"195055017","DECAY_DATE":null,"RCS_SIZE":"LARGE","RA_OF_ASC_NODE":"350.2993","MEAN_MOTION_DDOT":"0.0000000000000","BSTAR":"0.00063466000000","APOAPSIS":"548.896","SEMIMAJOR_AXIS":"6925.400","LAUNCH_DATE":"2021-05-15","PERIAPSIS":"545.635","EPHEMERIS_TYPE":"0","TLE_LINE1":"1 48576U 21041Z   22031.91668981  .00009180  00000-0  63466-3 0  9990","REV_AT_EPOCH":"358"},{"PERIOD":"95.592","TIME_SYSTEM":"UTC","GP_ID":"195054768","DECAY_DATE":null,"RCS_SIZE":"LARGE","RA_OF_ASC_NODE":"15.2519","MEAN_MOTION_DDOT":"0.0000000000000","BSTAR":"0.00011160000000","APOAPSIS":"548.184","SEMIMAJOR_AXIS":"6925.336","LAUNCH_DATE":"2021-05-15","PERIAPSIS":"546.219","EPHEMERIS_TYPE":"0","TLE_LINE1":"1 48577U 21041AA  22031.94516254  .00001381  00000-0  11160-3 0  9998","REV_AT_EPOCH":"3945","ELEMENT_SET_NO":"999","CLASSIFICATION_TYPE":"U","FILE":"3288814","MEAN_ANOMALY":"286.0145","SITE":"AFETR","TLE_LINE2":"2 48577  53.0538  15.2519 0001419  74.1000 286.0145 15.06403962 39450","REF_FRAME":"TEME","ARG_OF_PERICENTER":"74.1000","OBJECT_ID":"2021-041AA","OBJECT_TYPE":"PAYLOAD","COUNTRY_CODE":"US","CENTER_NAME":"EARTH","OBJECT_NAME":"STARLINK-2231","NORAD_CAT_ID":"48577","MEAN_MOTION":"15.06403962","ECCENTRICITY":"0.00014190","EPOCH":"2022-01-31T22:41:02.043456","MEAN_ELEMENT_THEORY":"SGP4","INCLINATION":"53.0538","MEAN_MOTION_DOT":"0.00001381"},{"PERIAPSIS":"546.211","LAUNCH_DATE":"2021-05-15","REV_AT_EPOCH":"3941","TLE_LINE1":"1 48578U 21041AB  22031.66040425  .00000231  00000-0  34415-4 0  9992","EPHEMERIS_TYPE":"0","APOAPSIS":"548.219","BSTAR":"0.00003441500000","SEMIMAJOR_AXIS":"6925.350","RCS_SIZE":"LARGE","MEAN_MOTION_DDOT":"0.0000000000000","RA_OF_ASC_NODE":"16.5392","TIME_SYSTEM":"UTC","PERIOD":"95.592","GP_ID":"195056019","DECAY_DATE":null,"ECCENTRICITY":"0.00014500","MEAN_MOTION":"15.06399589","MEAN_MOTION_DOT":"0.00000231","MEAN_ELEMENT_THEORY":"SGP4","INCLINATION":"53.0580","EPOCH":"2022-01-31T15:50:58.927200","COUNTRY_CODE":"US","OBJECT_TYPE":"PAYLOAD","NORAD_CAT_ID":"48578","OBJECT_NAME":"STARLINK-2232","CENTER_NAME":"EARTH","REF_FRAME":"TEME","TLE_LINE2":"2 48578  53.0580  16.5392 0001450  71.1776 288.9370 15.06399589 39419","SITE":"AFETR","OBJECT_ID":"2021-041AB","ARG_OF_PERICENTER":"71.1776","FILE":"3288814","CLASSIFICATION_TYPE":"U","ELEMENT_SET_NO":"999","MEAN_ANOMALY":"288.9370"}];
